start=new Date('2022-04-22T00:00:00.000Z').valueOf();
sats=[{"REV_AT_EPOCH":"7840","TIME_SYSTEM":"UTC","EPHEMERIS_TYPE":"0","RCS_SIZE":"LARGE","EPOCH":"2022-04-21T16:32:56.778720","MEAN_MOTION_DOT":"-0.00000744","LAUNCH_DATE":"2020-11-25","RA_OF_ASC_NODE":"187.2750","SEMIMAJOR_AXIS":"6925.338","OBJECT_ID":"2020-088BE","CENTER_NAME":"EARTH","MEAN_MOTION_DDOT":"0.0000000000000","ECCENTRICITY":"0.00022340","INCLINATION":"53.0532","PERIOD":"95.592","SITE":"AFETR","ELEMENT_SET_NO":"999","FILE":"3410450","MEAN_MOTION":"15.06403438","BSTAR":"-0.00003104800000","MEAN_ANOMALY":"323.4135","OBJECT_TYPE":"PAYLOAD","REF_FRAME":"TEME","GP_ID":"201774163","MEAN_ELEMENT_THEORY":"SGP4","OBJECT_NAME":"STARLINK-1891","COUNTRY_CODE":"US","TLE_LINE2":"2 47174  53.0532 187.2750 0002234  36.7006 323.4135 15.06403438 78400","TLE_LINE1":"1 47174U 20088BE  22111.68954605 -.00000744  00000-0 -31048-4 0  9998","CLASSIFICATION_TYPE":"U","DECAY_DATE":null,"NORAD_CAT_ID":"47174","APOAPSIS":"548.750","PERIAPSIS":"545.656","ARG_OF_PERICENTER":"36.7006"},{"RCS_SIZE":"LARGE","EPOCH":"2022-04-21T14:54:45.836640","REV_AT_EPOCH":"7838","EPHEMERIS_TYPE":"0","TIME_SYSTEM":"UTC","RA_OF_ASC_NODE":"167.5725","MEAN_MOTION_DOT":"0.00001193","LAUNCH_DATE":"2020-11-25","SEMIMAJOR_AXIS":"6925.337","OBJECT_ID":"2020-088BF","MEAN_MOTION_DDOT":"0.0000000000000","CENTER_NAME":"EARTH","PERIOD":"95.592","SITE":"AFETR","ECCENTRICITY":"0.00020870","INCLINATION":"53.0536","BSTAR":"0.00009897500000","REF_FRAME":"TEME","OBJECT_TYPE":"PAYLOAD","MEAN_ANOMALY":"320.8621","ELEMENT_SET_NO":"999","MEAN_MOTION":"15.06403631","FILE":"3410450","GP_ID":"201774413","OBJECT_NAME":"STARLINK-1895","TLE_LINE1":"1 47175U 20088BF  22111.62136385  .00001193  00000-0  98975-4 0  9999","COUNTRY_CODE":"US","TLE_LINE2":"2 47175  53.0536 167.5725 0002087  39.2519 320.8621 15.06403631 78384","MEAN_ELEMENT_THEORY":"SGP4","APOAPSIS":"548.648","ARG_OF_PERICENTER":"39.2519","PERIAPSIS":"545.757","CLASSIFICATION_TYPE":"U","DECAY_DATE":null,"NORAD_CAT_ID":"47175"},{"APOAPSIS":"548.359","PERIAPSIS":"546.029","ARG_OF_PERICENTER":"54.4360","NORAD_CAT_ID":"47177","DECAY_DATE":null,"CLASSIFICATION_TYPE":"U","OBJECT_NAME":"STARLINK-1907","TLE_LINE2":"2 47177  53.0541 177.3457 0001682  54.4360 305.6786 15.06406492 78545","COUNTRY_CODE":"US","TLE_LINE1":"1 47177U 20088BH  22111.67204792  .00001616  00000-0  12736-3 0  9994","MEAN_ELEMENT_THEORY":"SGP4","GP_ID":"201775665","BSTAR":"0.00012736000000","OBJECT_TYPE":"PAYLOAD","REF_FRAME":"TEME","MEAN_ANOMALY":"305.6786","ELEMENT_SET_NO":"999","MEAN_MOTION":"15.06406492","FILE":"3410450","PERIOD":"95.592","SITE":"AFETR","ECCENTRICITY":"0.00016820","INCLINATION":"53.0541","SEMIMAJOR_AXIS":"6925.329","OBJECT_ID":"2020-088BH","CENTER_NAME":"EARTH","MEAN_MOTION_DDOT":"0.0000000000000","RA_OF_ASC_NODE":"177.3457","MEAN_MOTION_DOT":"0.00001616","LAUNCH_DATE":"2020-11-25","RCS_SIZE":"LARGE","EPOCH":"2022-04-21T16:07:44.940288","REV_AT_EPOCH":"7854","TIME_SYSTEM":"UTC","EPHEMERIS_TYPE":"0"},{"ARG_OF_PERICENTER":"55.2652","PERIAPSIS":"546.056","APOAPSIS":"548.326","DECAY_DATE":null,"NORAD_CAT_ID":"47178","CLASSIFICATION_TYPE":"U","TLE_LINE1":"1 47178U 20088BJ  22111.71902904  .00002149  00000-0  16312-3 0  9996","TLE_LINE2":"2 47178  53.0535 187.1299 0001639  55.2652 304.8491 15.06407465 78115","COUNTRY_CODE":"US","OBJECT_NAME":"STARLINK-1912","MEAN_ELEMENT_THEORY":"SGP4","GP_ID":"201775410","OBJECT_TYPE":"PAYLOAD","MEAN_ANOMALY":"304.8491","REF_FRAME":"TEME","BSTAR":"0.00016312000000","FILE":"3410450","MEAN_MOTION":"15.06407465","ELEMENT_SET_NO":"999","SITE":"AFETR","PERIOD":"95.592","INCLINATION":"53.0535","ECCENTRICITY":"0.00016390","MEAN_MOTION_DDOT":"0.0000000000000","CENTER_NAME":"EARTH","OBJECT_ID":"2020-088BJ","SEMIMAJOR_AXIS":"6925.326","RA_OF_ASC_NODE":"187.1299","LAUNCH_DATE":"2020-11-25","MEAN_MOTION_DOT":"0.00002149","EPOCH":"2022-04-21T17:15:24.109056","RCS_SIZE":"LARGE","EPHEMERIS_TYPE":"0","TIME_SYSTEM":"UTC","REV_AT_EPOCH":"7811"},{"CENTER_NAME":"EARTH","MEAN_MOTION_DDOT":"0.0000000000000","OBJECT_ID":"2020-088BK","SEMIMAJOR_AXIS":"6925.338","SITE":"AFETR","PERIOD":"95.592","INCLINATION":"53.0542","ECCENTRICITY":"0.00015540","EPOCH":"2022-04-21T16:58:09.757632","RCS_SIZE":"LARGE","TIME_SYSTEM":"UTC","EPHEMERIS_TYPE":"0","REV_AT_EPOCH":"7822","RA_OF_ASC_NODE":"197.1760","LAUNCH_DATE":"2020-11-25","MEAN_MOTION_DOT":"-0.00000285","COUNTRY_CODE":"US","TLE_LINE2":"2 47179  53.0542 197.1760 0001554  63.0631 297.0517 15.06403533 78224","TLE_LINE1":"1 47179U 20088BK  22111.70705738 -.00000285  00000-0 -24547-6 0  9995","OBJECT_NAME":"STARLINK-1913","MEAN_ELEMENT_THEORY":"SGP4","PERIAPSIS":"546.127","ARG_OF_PERICENTER":"63.0631","APOAPSIS":"548.279","DECAY_DATE":null,"NORAD_CAT_ID":"47179","CLASSIFICATION_TYPE":"U","OBJECT_TYPE":"PAYLOAD","MEAN_ANOMALY":"297.0517","REF_FRAME":"TEME","BSTAR":"-0.00000024547000","FILE":"3410450","MEAN_MOTION":"15.06403533","ELEMENT_SET_NO":"999","GP_ID":"201774664"},{"MEAN_MOTION_DOT":"0.00000743","LAUNCH_DATE":"2020-11-25","RA_OF_ASC_NODE":"168.2102","REV_AT_EPOCH":"7836","EPHEMERIS_TYPE":"0","TIME_SYSTEM":"UTC","RCS_SIZE":"LARGE","EPOCH":"2022-04-21T11:33:03.672000","ECCENTRICITY":"0.00021830","INCLINATION":"53.0552","PERIOD":"95.592","SITE":"AFETR","SEMIMAJOR_AXIS":"6925.365","OBJECT_ID":"2020-088BM","CENTER_NAME":"EARTH","MEAN_MOTION_DDOT":"0.0000000000000","GP_ID":"201749549","ELEMENT_SET_NO":"999","MEAN_MOTION":"15.06394556","FILE":"3410449","BSTAR":"0.00006881700000","OBJECT_TYPE":"PAYLOAD","MEAN_ANOMALY":"320.4469","REF_FRAME":"TEME","DECAY_DATE":null,"CLASSIFICATION_TYPE":"U","NORAD_CAT_ID":"47181","APOAPSIS":"548.742","PERIAPSIS":"545.718","ARG_OF_PERICENTER":"39.6680","MEAN_ELEMENT_THEORY":"SGP4","OBJECT_NAME":"STARLINK-1927","COUNTRY_CODE":"US","TLE_LINE2":"2 47181  53.0552 168.2102 0002183  39.6680 320.4469 15.06394556 78365","TLE_LINE1":"1 47181U 20088BM  22111.48129250  .00000743  00000-0  68817-4 0  9995"},{"RA_OF_ASC_NODE":"198.8356","LAUNCH_DATE":"2021-01-20","MEAN_MOTION_DOT":"0.00011021","EPOCH":"2022-04-21T13:48:58.776192","RCS_SIZE":"LARGE","TIME_SYSTEM":"UTC","EPHEMERIS_TYPE":"0","REV_AT_EPOCH":"7082","SITE":"AFETR","PERIOD":"91.329","INCLINATION":"53.0341","ECCENTRICITY":"0.00027450","CENTER_NAME":"EARTH","MEAN_MOTION_DDOT":"0.0000000000000","OBJECT_ID":"2021-005A","SEMIMAJOR_AXIS":"6717.872","GP_ID":"201774181","OBJECT_TYPE":"PAYLOAD","MEAN_ANOMALY":"345.6318","REF_FRAME":"TEME","BSTAR":"0.00007126300000","FILE":"3410450","MEAN_MOTION":"15.76722157","ELEMENT_SET_NO":"999","PERIAPSIS":"337.893","ARG_OF_PERICENTER":"14.4779","APOAPSIS":"341.581","DECAY_DATE":null,"CLASSIFICATION_TYPE":"U","NORAD_CAT_ID":"47349","COUNTRY_CODE":"US","TLE_LINE2":"2 47349  53.0341 198.8356 0002745  14.4779 345.6318 15.76722157 70825","TLE_LINE1":"1 47349U 21005A   22111.57568028  .00011021  00000-0  71263-4 0  9991","OBJECT_NAME":"STARLINK-1952","MEAN_ELEMENT_THEORY":"SGP4"},{"MEAN_ELEMENT_THEORY":"SGP4","OBJECT_NAME":"STARLINK-2011","TLE_LINE1":"1 47350U 21005B   22111.71902982  .00001377  00000-0  11131-3 0  9990","COUNTRY_CODE":"US","TLE_LINE2":"2 47350  53.0558 307.1370 0001532  59.6363 300.4778 15.06408882 69322","CLASSIFICATION_TYPE":"U","DECAY_DATE":null,"NORAD_CAT_ID":"47350","APOAPSIS":"548.247","ARG_OF_PERICENTER":"59.6363","PERIAPSIS":"546.125","ELEMENT_SET_NO":"999","FILE":"3410450","MEAN_MOTION":"15.06408882","BSTAR":"0.00011131000000","MEAN_ANOMALY":"300.4778","OBJECT_TYPE":"PAYLOAD","REF_FRAME":"TEME","GP_ID":"201774431","OBJECT_ID":"2021-005B","SEMIMAJOR_AXIS":"6925.321","MEAN_MOTION_DDOT":"0.0000000000000","CENTER_NAME":"EARTH","ECCENTRICITY":"0.00015320","INCLINATION":"53.0558","PERIOD":"95.592","SITE":"AFETR","REV_AT_EPOCH":"6932","TIME_SYSTEM":"UTC","EPHEMERIS_TYPE":"0","RCS_SIZE":"LARGE","EPOCH":"2022-04-21T17:15:24.176448","MEAN_MOTION_DOT":"0.00001377","LAUNCH_DATE":"2021-01-20","RA_OF_ASC_NODE":"307.1370"},{"RA_OF_ASC_NODE":"268.1820","LAUNCH_DATE":"2021-01-20","MEAN_MOTION_DOT":"0.00001068","EPOCH":"2022-04-21T11:35:42.398304","RCS_SIZE":"LARGE","EPHEMERIS_TYPE":"0","TIME_SYSTEM":"UTC","REV_AT_EPOCH":"6984","SITE":"AFETR","PERIOD":"95.592","INCLINATION":"53.0534","ECCENTRICITY":"0.00015590","CENTER_NAME":"EARTH","MEAN_MOTION_DDOT":"0.0000000000000","OBJECT_ID":"2021-005C","SEMIMAJOR_AXIS":"6925.321","GP_ID":"201749813","MEAN_ANOMALY":"274.7036","OBJECT_TYPE":"PAYLOAD","REF_FRAME":"TEME","BSTAR":"0.00009055700000","MEAN_MOTION":"15.06408994","FILE":"3410449","ELEMENT_SET_NO":"999","PERIAPSIS":"546.106","ARG_OF_PERICENTER":"85.4130","APOAPSIS":"548.266","NORAD_CAT_ID":"47351","DECAY_DATE":null,"CLASSIFICATION_TYPE":"U","COUNTRY_CODE":"US","TLE_LINE2":"2 47351  53.0534 268.1820 0001559  85.4130 274.7036 15.06408994 69842","TLE_LINE1":"1 47351U 21005C   22111.48312961  .00001068  00000-0  90557-4 0  9994","OBJECT_NAME":"STARLINK-2017","MEAN_ELEMENT_THEORY":"SGP4"},{"SITE":"AFETR","PERIOD":"95.592","INCLINATION":"53.0558","ECCENTRICITY":"0.00015120","CENTER_NAME":"EARTH","MEAN_MOTION_DDOT":"0.0000000000000","SEMIMAJOR_AXIS":"6925.328","OBJECT_ID":"2021-005D","RA_OF_ASC_NODE":"306.6302","LAUNCH_DATE":"2021-01-20","MEAN_MOTION_DOT":"0.00001194","EPOCH":"2022-04-21T19:59:56.354496","RCS_SIZE":"LARGE","EPHEMERIS_TYPE":"0","TIME_SYSTEM":"UTC","REV_AT_EPOCH":"6933","PERIAPSIS":"546.145","ARG_OF_PERICENTER":"57.0194","APOAPSIS":"548.240","DECAY_DATE":null,"CLASSIFICATION_TYPE":"U","NORAD_CAT_ID":"47352","COUNTRY_CODE":"US","TLE_LINE2":"2 47352  53.0558 306.6302 0001512  57.0194 303.0940 15.06406851 69330","TLE_LINE1":"1 47352U 21005D   22111.83329114  .00001194  00000-0  99016-4 0  9991","OBJECT_NAME":"STARLINK-2034","MEAN_ELEMENT_THEORY":"SGP4","GP_ID":"201775428","OBJECT_TYPE":"PAYLOAD","MEAN_ANOMALY":"303.0940","REF_FRAME":"TEME","BSTAR":"0.00009901600000","FILE":"3410450","MEAN_MOTION":"15.06406851","ELEMENT_SET_NO":"999"}];
